[{"OBJECT_NAME":"STARLINK-6328","OBJECT_ID":"2023-065W","EPOCH":"2026-03-09T10:53:54.289248","MEAN_MOTION":15.02525734,"ECCENTRICITY":0.00016258,"INCLINATION":43.004,"RA_OF_ASC_NODE":211.2412,"ARG_OF_PERICENTER":260.5459,"MEAN_ANOMALY":99.52,"EPHEMERIS_TYPE":0,"CLASSIFICATION_TYPE":"U","NORAD_CAT_ID":56523,"ELEMENT_SET_NO":999,"REV_AT_EPOCH":15659,"BSTAR":0.00014448972,"MEAN_MOTION_DOT":1.748e-5,"MEAN_MOTION_DDOT":0},{"OBJECT_NAME":"COSMOS 397 DEB","OBJECT_ID":"1971-015W","EPOCH":"2026-03-09T09:13:02.014176","MEAN_MOTION":13.36711819,"ECCENTRICITY":0.07571879,"INCLINATION":65.7345,"RA_OF_ASC_NODE":80.8462,"ARG_OF_PERICENTER":151.8854,"MEAN_ANOMALY":212.5334,"EPHEMERIS_TYPE":0,"CLASSIFICATION_TYPE":"U","NORAD_CAT_ID":5097,"ELEMENT_SET_NO":999,"REV_AT_EPOCH":62386,"BSTAR":0.00039228108,"MEAN_MOTION_DOT":1.028e-5,"MEAN_MOTION_DDOT":0}]
